NORAD_CAT_ID,OBJECT_NAME,OBJECT_TYPE,EPOCH,MEAN_MOTION,ECCENTRICITY,INCLINATION,RA_OF_ASC_NODE,ARG_OF_PERICENTER,MEAN_ANOMALY,BSTAR,MEAN_MOTION_DOT,MEAN_MOTION_DDOT,TLE_LINE0,TLE_LINE1,TLE_LINE2,SEMIMAJOR_AXIS,PERIOD,APOGEE,PERIGEE,DECAYED
50845.0,STARLINK-3230,PAYLOAD,2024-07-20 13:19:06,15.08825467,0.0001389,53.2189,339.767,106.1193,253.9952,7.7547e-05,9.46e-06,0.0,0 STARLINK-3230,1 50845U 22001AU  24202.55493843  .00000946  00000-0  77547-4 0  9991,2 50845  53.2189 339.7670 0001389 106.1193 253.9952 15.08825467141354,6917.925,95.438,540.751,538.829,0.0
50845.0,STARLINK-3230,PAYLOAD,2024-07-20 14:54:29,15.08828026,0.0001556,53.2191,339.4691,105.7754,254.341,0.00010415,1.369e-05,0.0,0 STARLINK-3230,1 50845U 22001AU  24202.62117766  .00001369  00000-0  10415-3 0  9996,2 50845  53.2191 339.4691 0001556 105.7754 254.3410 15.08828026140134,6917.917,95.438,540.858,538.706,0.0
50845.0,STARLINK-3230,PAYLOAD,2024-07-20 16:29:52,15.08834929,8.21e-05,53.2176,339.1697,65.7521,294.3557,0.00018904,2.722e-05,0.0,0 STARLINK-3230,1 50845U 22001AU  24202.68741520  .00002722  00000-0  18904-3 0  9998,2 50845  53.2176 339.1697 0000821  65.7521 294.3557 15.08834929140147,6917.896,95.438,540.329,539.193,0.0
50845.0,STARLINK-3230,PAYLOAD,2024-07-21 02:02:10,15.08853545,0.0001016,53.218,337.3843,68.2417,291.8683,0.0002242,3.283e-05,0.0,0 STARLINK-3230,1 50845U 22001AU  24203.08484278  .00003283  00000-0  22420-3 0  9998,2 50845  53.2180 337.3843 0001016  68.2417 291.8683 15.08853545141434,6917.839,95.437,540.407,539.001,0.0
50845.0,STARLINK-3230,PAYLOAD,2024-07-21 13:09:53,15.08836309,0.0001151,53.2174,335.3039,78.9701,281.1421,-0.00017275,-3.036e-05,0.0,0 STARLINK-3230,1 50845U 22001AU  24203.54853211 -.00003036  00000-0 -17275-3 0  9996,2 50845  53.2174 335.3039 0001151  78.9701 281.1421 15.08836309141505,6917.892,95.438,540.553,538.96,0.0
50845.0,STARLINK-3230,PAYLOAD,2024-07-21 16:20:38,15.08849656,0.0001094,53.2176,334.7119,93.5385,266.5732,2.1699e-05,5.8e-07,0.0,0 STARLINK-3230,1 50845U 22001AU  24203.68100604  .00000058  00000-0  21699-4 0  9997,2 50845  53.2176 334.7119 0001094  93.5385 266.5732 15.08849656141529,6917.851,95.437,540.473,538.959,0.0
50845.0,STARLINK-3230,PAYLOAD,2024-07-22 17:46:49,15.08840821,0.0001134,53.218,329.9519,70.5716,289.5398,0.00011614,1.561e-05,0.0,0 STARLINK-3230,1 50845U 22001AU  24204.74085217  .00001561  00000-0  11614-3 0  9992,2 50845  53.2180 329.9519 0001134  70.5716 289.5398 15.08840821141687,6917.878,95.438,540.527,538.958,0.0
50845.0,STARLINK-3230,PAYLOAD,2024-07-23 14:26:50,15.08832037,0.0001094,53.2177,326.086,90.0656,270.0461,0.00053205,8.188e-05,0.0,0 STARLINK-3230,1 50845U 22001AU  24205.60197884  .00008188  00000-0  53205-3 0  9996,2 50845  53.2177 326.0860 0001094  90.0656 270.0461 15.08832037140589,6917.905,95.438,540.527,539.013,0.0
50845.0,STARLINK-3230,PAYLOAD,2024-07-24 07:56:05,15.08837905,0.000126,53.2178,322.8155,81.1722,278.9412,4.5823e-05,4.41e-06,0.0,0 STARLINK-3230,1 50845U 22001AU  24206.33061472  .00000441  00000-0  45823-4 0  9992,2 50845  53.2178 322.8155 0001260  81.1722 278.9412 15.08837905140695,6917.887,95.438,540.623,538.88,0.0
50845.0,STARLINK-3230,PAYLOAD,2024-07-24 17:28:23,15.08840973,0.0001264,53.2148,321.0307,88.5304,271.5833,6.4419e-05,7.38e-06,0.0,0 STARLINK-3230,1 50845U 22001AU  24206.72805353  .00000738  00000-0  64419-4 0  9990,2 50845  53.2148 321.0307 0001264  88.5304 271.5833 15.08840973141981,6917.877,95.437,540.617,538.868,0.0
50845.0,STARLINK-3230,PAYLOAD,2024-07-25 14:08:24,15.08837944,0.0001381,53.2162,317.1643,90.4167,269.6983,9.0494e-05,1.153e-05,0.0,0 STARLINK-3230,1 50845U 22001AU  24207.58917385  .00001153  00000-0  90494-4 0  9998,2 50845  53.2162 317.1643 0001381  90.4167 269.6983 15.08837944140881,6917.887,95.438,540.707,538.796,0.0
50845.0,STARLINK-3230,PAYLOAD,2024-07-26 17:09:57,15.08842966,0.0001422,53.2165,312.1097,90.3959,269.7196,9.7743e-05,1.268e-05,0.0,0 STARLINK-3230,1 50845U 22001AU  24208.71524971  .00001268  00000-0  97743-4 0  9990,2 50845  53.2165 312.1097 0001422  90.3959 269.7196 15.08842966142289,6917.871,95.437,540.72,538.753,0.0
50845.0,STARLINK-3230,PAYLOAD,2024-07-27 10:39:12,15.08835742,0.0001216,53.2159,308.8358,103.1695,256.9433,7.9301e-06,-1.62e-06,0.0,0 STARLINK-3230,1 50845U 22001AU  24209.44389822 -.00000162  00000-0  79301-5 0  9999,2 50845  53.2159 308.8358 0001216 103.1695 256.9433 15.08835742142393,6917.893,95.438,540.6,538.917,0.0
50845.0,STARLINK-3230,PAYLOAD,2024-07-27 15:25:22,15.08830453,0.0001395,53.2169,307.9469,91.9052,268.2099,-2.7409e-05,-7.24e-06,0.0,0 STARLINK-3230,1 50845U 22001AU  24209.64262428 -.00000724  00000-0 -27409-4 0  9999,2 50845  53.2169 307.9469 0001395  91.9052 268.2099 15.08830453141191,6917.91,95.438,540.74,538.81,0.0
50845.0,STARLINK-3230,PAYLOAD,2024-07-28 12:05:22,15.08838,0.0001419,53.2163,304.0818,95.6914,264.424,9.2014e-05,1.177e-05,0.0,0 STARLINK-3230,1 50845U 22001AU  24210.50373825  .00001177  00000-0  92014-4 0  9995,2 50845  53.2163 304.0818 0001419  95.6914 264.4240 15.08838000142559,6917.887,95.438,540.733,538.77,0.0
50845.0,STARLINK-3230,PAYLOAD,2024-07-28 15:16:08,15.08849119,0.0001421,53.2173,303.4861,89.6046,270.5109,0.00011663,1.569e-05,0.0,0 STARLINK-3230,1 50845U 22001AU  24210.63621157  .00001569  00000-0  11663-3 0  9998,2 50845  53.2173 303.4861 0001421  89.6046 270.5109 15.08849119142570,6917.853,95.437,540.701,538.734,0.0
50845.0,STARLINK-3230,PAYLOAD,2024-07-29 10:20:47,15.08834131,0.0001588,53.2169,299.9179,94.7018,265.4155,0.00012851,1.758e-05,0.0,0 STARLINK-3230,1 50845U 22001AU  24211.43110146  .00001758  00000-0  12851-3 0  9998,2 50845  53.2169 299.9179 0001588  94.7018 265.4155 15.08834131142691,6917.898,95.438,540.862,538.665,0.0
50845.0,STARLINK-3230,PAYLOAD,2024-07-29 18:17:42,15.08838314,0.000204,53.2176,298.4303,91.1852,268.9374,0.00018773,2.701e-05,0.0,0 STARLINK-3230,1 50845U 22001AU  24211.76229989  .00002701  00000-0  18773-3 0  9998,2 50845  53.2176 298.4303 0002040  91.1852 268.9374 15.08838314141511,6917.886,95.438,541.162,538.339,0.0
50845.0,STARLINK-3230,PAYLOAD,2024-07-29 23:03:51,15.08848259,0.0002044,53.2195,297.5363,87.1192,273.0034,0.00016037,2.266e-05,0.0,0 STARLINK-3230,1 50845U 22001AU  24211.96101376  .00002266  00000-0  16037-3 0  9996,2 50845  53.2195 297.5363 0002044  87.1192 273.0034 15.08848259142772,6917.855,95.437,541.134,538.306,0.0
50845.0,STARLINK-3230,PAYLOAD,2024-07-30 10:11:34,15.0884339,0.0001448,53.2176,295.4572,90.6892,269.4266,-2.6308e-05,-7.07e-06,0.0,0 STARLINK-3230,1 50845U 22001AU  24212.42469979 -.00000707  00000-0 -26308-4 0  9997,2 50845  53.2176 295.4572 0001448  90.6892 269.4266 15.08843390142848,6917.87,95.437,540.737,538.733,0.0
50845.0,STARLINK-3230,PAYLOAD,2024-07-30 14:57:43,15.08847724,0.0001826,53.2179,294.5649,88.9913,271.1289,1.413e-05,-6.3e-07,0.0,0 STARLINK-3230,1 50845U 22001AU  24212.62341627 -.00000063  00000-0  14130-4 0  9992,2 50845  53.2179 294.5649 0001826  88.9913 271.1289 15.08847724141647,6917.857,95.437,540.985,538.459,0.0
50845.0,STARLINK-3230,PAYLOAD,2024-07-31 11:37:44,15.08831588,0.0001929,53.219,290.6972,99.7157,260.4053,5.3911e-06,-2.02e-06,0.0,0 STARLINK-3230,1 50845U 22001AU  24213.48454705 -.00000202  00000-0  53911-5 0  9995,2 50845  53.2190 290.6972 0001929  99.7157 260.4053 15.08831588143003,6917.906,95.438,541.106,538.437,0.0
50845.0,STARLINK-3230,PAYLOAD,2024-07-31 22:45:26,15.08840433,0.000195,53.2185,288.6173,99.6476,260.4736,3.5083e-05,2.7e-06,0.0,0 STARLINK-3230,1 50845U 22001AU  24213.94822067  .00000270  00000-0  35083-4 0  9999,2 50845  53.2185 288.6173 0001950  99.6476 260.4736 15.08840433141841,6917.879,95.438,541.093,538.395,0.0
50845.0,STARLINK-3230,PAYLOAD,2024-08-01 11:28:30,15.08856557,0.0001509,53.2161,286.2401,94.5145,265.602,0.0005558,8.573e-05,0.0,0 STARLINK-3230,1 50845U 22001AU  24214.47813555  .00008573  00000-0  55580-3 0  9997,2 50845  53.2161 286.2401 0001509  94.5145 265.6020 15.08856557143153,6917.83,95.437,540.739,538.651,0.0
50845.0,STARLINK-3230,PAYLOAD,2024-08-02 11:19:18,15.08832746,0.000133,53.2167,281.7798,100.7702,259.344,-0.00019807,-3.438e-05,0.0,0 STARLINK-3230,1 50845U 22001AU  24215.47173760 -.00003438  00000-0 -19807-3 0  9994,2 50845  53.2167 281.7798 0001330 100.7702 259.3440 15.08832746143306,6917.903,95.438,540.688,538.847,0.0
50845.0,STARLINK-3230,PAYLOAD,2024-08-02 16:05:27,15.08834221,0.0001325,53.2159,280.8885,103.3501,256.7639,0.00017909,2.563e-05,0.0,0 STARLINK-3230,1 50845U 22001AU  24215.67046037  .00002563  00000-0  17909-3 0  9999,2 50845  53.2159 280.8885 0001325 103.3501 256.7639 15.08834221142102,6917.898,95.438,540.68,538.846,0.0
50845.0,STARLINK-3230,PAYLOAD,2024-08-03 11:10:05,15.08851399,0.0001312,53.2164,277.3205,102.4606,257.6533,0.00097415,0.00015254,0.0,0 STARLINK-3230,1 50845U 22001AU  24216.46534204  .00015254  00000-0  97415-3 0  9996,2 50845  53.2164 277.3205 0001312 102.4606 257.6533 15.08851399143454,6917.846,95.437,540.618,538.803,0.0
50845.0,STARLINK-3230,PAYLOAD,2024-08-03 20:42:23,15.0886768,0.0001316,53.2162,275.5367,102.9682,257.1457,0.0010982,0.00017246,0.0,0 STARLINK-3230,1 50845U 22001AU  24216.86277589  .00017246  00000-0  10982-2 0  9996,2 50845  53.2162 275.5367 0001316 102.9682 257.1457 15.08867680142284,6917.796,95.436,540.571,538.75,0.0
50845.0,STARLINK-3230,PAYLOAD,2024-08-04 03:03:56,15.0885922,0.0002274,53.2157,274.3474,83.5265,276.5986,0.00071238,0.00011074,0.0,0 STARLINK-3230,1 50845U 22001AU  24217.12773947  .00011074  00000-0  71238-3 0  9990,2 50845  53.2157 274.3474 0002274  83.5265 276.5986 15.08859220143553,6917.822,95.436,541.26,538.114,0.0
50845.0,STARLINK-3230,PAYLOAD,2024-08-04 11:00:52,15.08849021,0.0001232,53.2156,272.8604,88.9913,271.1221,0.00041796,6.372e-05,0.0,0 STARLINK-3230,1 50845U 22001AU  24217.45893792  .00006372  00000-0  41796-3 0  9998,2 50845  53.2156 272.8604 0001232  88.9913 271.1221 15.08849021143609,6917.853,95.437,540.57,538.866,0.0
